{"type":"FeatureCollection","features":[{"type":"Feature","id":"metro_ligero-route-1","geometry":{"type":"LineString","coordinates":[[-3.83812,40.39419],[-3.83752,40.39416],[-3.83731,40.39423],[-3.83717,40.39434],[-3.8371,40.39453],[-3.83693,40.39591],[-3.83687,40.3962],[-3.8368,40.39642],[-3.83662,40.39675],[-3.8362,40.39735],[-3.836,40.39756],[-3.83573,40.39791]]},"properties":{"kind":"route","mode":"metro_ligero","route":"ML3","name":"Metro Ligero ML3","destination":"MONTEPRINCIPE","direction":"2","color":"#E30916","source_date":"2026-05-29","terminus":"COLONIA JARDIN","offset_index":0}},{"type":"Feature","id":"metro_ligero-route-2","geometry":{"type":"LineString","coordinates":[[-3.81676,40.39874],[-3.82322,40.39814],[-3.82367,40.39812],[-3.82538,40.39797],[-3.82576,40.398],[-3.82759,40.39786],[-3.8282,40.39785],[-3.8289,40.39794],[-3.82933,40.39807],[-3.82954,40.39816],[-3.83018,40.3985],[-3.83102,40.39903],[-3.83136,40.3992],[-3.83169,40.39934],[-3.83231,40.39949],[-3.83278,40.39953],[-3.83315,40.39953],[-3.8335,40.39949],[-3.83385,40.39941],[-3.83417,40.39931],[-3.83462,40.39911],[-3.83488,40.39895],[-3.83521,40.39869],[-3.83552,40.39838],[-3.83585,40.39795]]},"properties":{"kind":"route","mode":"metro_ligero","route":"ML3","name":"Metro Ligero ML3","destination":"MONTEPRINCIPE","direction":"1","color":"#E30916","source_date":"2026-05-29","terminus":"PUERTA DE BOADILLA","offset_index":0}},{"type":"Feature","id":"metro_ligero-route-3","geometry":{"type":"LineString","coordinates":[[-3.84774,40.395],[-3.8446,40.3949],[-3.84351,40.39484],[-3.84327,40.39479],[-3.84286,40.39459],[-3.84259,40.39451],[-3.83812,40.39419]]},"properties":{"kind":"route","mode":"metro_ligero","route":"ML3","name":"Metro Ligero ML3","destination":"VENTORRO DEL CANO","direction":"2","color":"#E30916","source_date":"2026-05-29","terminus":"COLONIA JARDIN","offset_index":0}},{"type":"Feature","id":"metro_ligero-route-4","geometry":{"type":"LineString","coordinates":[[-3.83585,40.39795],[-3.8361,40.39761],[-3.83623,40.39736],[-3.83666,40.39677],[-3.83684,40.39642],[-3.83694,40.3961],[-3.83714,40.39454],[-3.83721,40.39436],[-3.83733,40.39425],[-3.83753,40.39419],[-3.83812,40.39422]]},"properties":{"kind":"route","mode":"metro_ligero","route":"ML3","name":"Metro Ligero ML3","destination":"VENTORRO DEL CANO","direction":"1","color":"#E30916","source_date":"2026-05-29","terminus":"PUERTA DE BOADILLA","offset_index":0}},{"type":"Feature","id":"metro_ligero-route-5","geometry":{"type":"LineString","coordinates":[[-3.8644,40.39528],[-3.8637,40.39516],[-3.86346,40.39517],[-3.86314,40.39526],[-3.86286,40.39545],[-3.86257,40.39582],[-3.86166,40.39678],[-3.8615,40.39687],[-3.86132,40.39689],[-3.85587,40.39556],[-3.85472,40.39535],[-3.85346,40.39522],[-3.84774,40.395]]},"properties":{"kind":"route","mode":"metro_ligero","route":"ML3","name":"Metro Ligero ML3","destination":"PRADO DEL ESPINO","direction":"2","color":"#E30916","source_date":"2026-05-29","terminus":"COLONIA JARDIN","offset_index":0}},{"type":"Feature","id":"metro_ligero-route-6","geometry":{"type":"LineString","coordinates":[[-3.83812,40.39422],[-3.84258,40.39455],[-3.84284,40.39462],[-3.84325,40.39482],[-3.8435,40.39487],[-3.8446,40.39493],[-3.84568,40.39495],[-3.84774,40.39504]]},"properties":{"kind":"route","mode":"metro_ligero","route":"ML3","name":"Metro Ligero ML3","destination":"PRADO DEL ESPINO","direction":"1","color":"#E30916","source_date":"2026-05-29","terminus":"PUERTA DE BOADILLA","offset_index":0}},{"type":"Feature","id":"metro_ligero-route-7","geometry":{"type":"LineString","coordinates":[[-3.8794,40.40198],[-3.87974,40.4017],[-3.88044,40.4012],[-3.88096,40.40077],[-3.88108,40.40061],[-3.88112,40.40052],[-3.88116,40.4003],[-3.88111,40.40008],[-3.88095,40.39983],[-3.88078,40.3997],[-3.87974,40.39909],[-3.87962,40.39894],[-3.87937,40.39846],[-3.8793,40.3984],[-3.87903,40.39826],[-3.87841,40.39801],[-3.87795,40.39787],[-3.87738,40.39774],[-3.87688,40.39767],[-3.87532,40.3976],[-3.87502,40.39762],[-3.87446,40.3977],[-3.87433,40.39769],[-3.87306,40.39723],[-3.87271,40.39714],[-3.87023,40.39682],[-3.86971,40.39673],[-3.86508,40.3954],[-3.8644,40.39528]]},"properties":{"kind":"route","mode":"metro_ligero","route":"ML3","name":"Metro Ligero ML3","destination":"CANTABRIA","direction":"2","color":"#E30916","source_date":"2026-05-29","terminus":"COLONIA JARDIN","offset_index":0}},{"type":"Feature","id":"metro_ligero-route-8","geometry":{"type":"LineString","coordinates":[[-3.84774,40.39504],[-3.85345,40.39526],[-3.85471,40.39538],[-3.85586,40.39559],[-3.86132,40.39692],[-3.86151,40.3969],[-3.86169,40.3968],[-3.86261,40.39584],[-3.86289,40.39547],[-3.86316,40.39529],[-3.86347,40.3952],[-3.8637,40.39519],[-3.86439,40.39531]]},"properties":{"kind":"route","mode":"metro_ligero","route":"ML3","name":"Metro Ligero ML3","destination":"CANTABRIA","direction":"1","color":"#E30916","source_date":"2026-05-29","terminus":"PUERTA DE BOADILLA","offset_index":0}},{"type":"Feature","id":"metro_ligero-route-9","geometry":{"type":"LineString","coordinates":[[-3.88006,40.40713],[-3.87844,40.40557],[-3.87822,40.40529],[-3.87812,40.40512],[-3.87804,40.40496],[-3.87794,40.4046],[-3.87791,40.40434],[-3.87792,40.40408],[-3.878,40.40333],[-3.87806,40.40317],[-3.87817,40.40305],[-3.879,40.40231],[-3.8794,40.40198]]},"properties":{"kind":"route","mode":"metro_ligero","route":"ML3","name":"Metro Ligero ML3","destination":"FERIAL DE BOADILLA","direction":"2","color":"#E30916","source_date":"2026-05-29","terminus":"COLONIA JARDIN","offset_index":0}},{"type":"Feature","id":"metro_ligero-route-10","geometry":{"type":"LineString","coordinates":[[-3.86439,40.39531],[-3.86507,40.39544],[-3.8697,40.39676],[-3.87006,40.39683],[-3.8727,40.39717],[-3.87304,40.39726],[-3.87432,40.39772],[-3.87447,40.39773],[-3.87503,40.39765],[-3.87532,40.39764],[-3.87687,40.39771],[-3.87737,40.39778],[-3.87794,40.3979],[-3.87839,40.39804],[-3.87881,40.3982],[-3.87927,40.39842],[-3.87937,40.39852],[-3.87958,40.39896],[-3.8797,40.39911],[-3.88082,40.39977],[-3.88103,40.40001],[-3.8811,40.40019],[-3.88111,40.4003],[-3.88108,40.40051],[-3.88092,40.40075],[-3.88041,40.40117],[-3.87937,40.40195]]},"properties":{"kind":"route","mode":"metro_ligero","route":"ML3","name":"Metro Ligero ML3","destination":"FERIAL DE BOADILLA","direction":"1","color":"#E30916","source_date":"2026-05-29","terminus":"PUERTA DE BOADILLA","offset_index":0}},{"type":"Feature","id":"metro_ligero-route-11","geometry":{"type":"LineString","coordinates":[[-3.87937,40.40195],[-3.87814,40.40303],[-3.87802,40.40316],[-3.87796,40.40332],[-3.87788,40.40407],[-3.87787,40.40435],[-3.87789,40.4046],[-3.878,40.40497],[-3.87818,40.4053],[-3.87829,40.40546],[-3.87866,40.40586],[-3.88002,40.40715]]},"properties":{"kind":"route","mode":"metro_ligero","route":"ML3","name":"Metro Ligero ML3","destination":"BOADILLA CENTRO","direction":"1","color":"#E30916","source_date":"2026-05-29","terminus":"PUERTA DE BOADILLA","offset_index":0}},{"type":"Feature","id":"metro_ligero-route-12","geometry":{"type":"LineString","coordinates":[[-3.88577,40.40558],[-3.88492,40.40551],[-3.88473,40.40553],[-3.88457,40.40559],[-3.88349,40.40632],[-3.88338,40.40643],[-3.8833,40.40657],[-3.88321,40.40668],[-3.88258,40.40712],[-3.88226,40.40725],[-3.88182,40.40754],[-3.88155,40.40766],[-3.88117,40.40771],[-3.88095,40.40769],[-3.88072,40.40763],[-3.88045,40.40749],[-3.88006,40.40713]]},"properties":{"kind":"route","mode":"metro_ligero","route":"ML3","name":"Metro Ligero ML3","destination":"BOADILLA CENTRO","direction":"2","color":"#E30916","source_date":"2026-05-29","terminus":"COLONIA JARDIN","offset_index":0}},{"type":"Feature","id":"metro_ligero-route-13","geometry":{"type":"LineString","coordinates":[[-3.88002,40.40715],[-3.88038,40.40749],[-3.8805,40.40757],[-3.88071,40.40767],[-3.88094,40.40772],[-3.88107,40.40773],[-3.8813,40.40772],[-3.88153,40.40768],[-3.88183,40.40755],[-3.88227,40.40727],[-3.88263,40.40712],[-3.88324,40.40668],[-3.88345,40.40639],[-3.88449,40.40569],[-3.88471,40.40563],[-3.88482,40.40563],[-3.88575,40.40571]]},"properties":{"kind":"route","mode":"metro_ligero","route":"ML3","name":"Metro Ligero ML3","destination":"NUEVO MUNDO","direction":"1","color":"#E30916","source_date":"2026-05-29","terminus":"PUERTA DE BOADILLA","offset_index":0}},{"type":"Feature","id":"metro_ligero-route-14","geometry":{"type":"LineString","coordinates":[[-3.89263,40.40511],[-3.89215,40.40519],[-3.88977,40.40568],[-3.88909,40.40577],[-3.88831,40.40579],[-3.88771,40.40577],[-3.88577,40.40558]]},"properties":{"kind":"route","mode":"metro_ligero","route":"ML3","name":"Metro Ligero ML3","destination":"NUEVO MUNDO","direction":"2","color":"#E30916","source_date":"2026-05-29","terminus":"COLONIA JARDIN","offset_index":0}},{"type":"Feature","id":"metro_ligero-route-15","geometry":{"type":"LineString","coordinates":[[-3.88575,40.40571],[-3.88777,40.40589],[-3.88878,40.40588],[-3.88977,40.40572],[-3.89216,40.40522],[-3.89264,40.40515]]},"properties":{"kind":"route","mode":"metro_ligero","route":"ML3","name":"Metro Ligero ML3","destination":"SIGLO XXI","direction":"1","color":"#E30916","source_date":"2026-05-29","terminus":"PUERTA DE BOADILLA","offset_index":0}},{"type":"Feature","id":"metro_ligero-route-16","geometry":{"type":"LineString","coordinates":[[-3.89744,40.40589],[-3.89698,40.40573],[-3.89667,40.40553],[-3.89656,40.40548],[-3.89612,40.40542],[-3.89558,40.40526],[-3.8949,40.40511],[-3.89422,40.40504],[-3.89326,40.40506],[-3.89263,40.40511]]},"properties":{"kind":"route","mode":"metro_ligero","route":"ML3","name":"Metro Ligero ML3","destination":"SIGLO XXI","direction":"2","color":"#E30916","source_date":"2026-05-29","terminus":"COLONIA JARDIN","offset_index":0}},{"type":"Feature","id":"metro_ligero-route-17","geometry":{"type":"LineString","coordinates":[[-3.89264,40.40515],[-3.89326,40.40509],[-3.89367,40.40508],[-3.89489,40.40524],[-3.89579,40.40545],[-3.89609,40.40556],[-3.89644,40.40577],[-3.8969,40.40584],[-3.89738,40.40601]]},"properties":{"kind":"route","mode":"metro_ligero","route":"ML3","name":"Metro Ligero ML3","destination":"INFANTE DON LUIS","direction":"1","color":"#E30916","source_date":"2026-05-29","terminus":"PUERTA DE BOADILLA","offset_index":0}},{"type":"Feature","id":"metro_ligero-route-18","geometry":{"type":"LineString","coordinates":[[-3.90379,40.40776],[-3.90295,40.40748],[-3.90273,40.40749],[-3.90222,40.40756],[-3.90195,40.40753],[-3.90142,40.40734],[-3.90111,40.40718],[-3.89744,40.40589]]},"properties":{"kind":"route","mode":"metro_ligero","route":"ML3","name":"Metro Ligero ML3","destination":"INFANTE DON LUIS","direction":"2","color":"#E30916","source_date":"2026-05-29","terminus":"COLONIA JARDIN","offset_index":0}},{"type":"Feature","id":"metro_ligero-route-19","geometry":{"type":"LineString","coordinates":[[-3.89738,40.40601],[-3.90105,40.4073],[-3.90147,40.4074],[-3.90194,40.40756],[-3.90223,40.40759],[-3.90294,40.40751],[-3.90377,40.40779]]},"properties":{"kind":"route","mode":"metro_ligero","route":"ML3","name":"Metro Ligero ML3","destination":"PUERTA DE BOADILLA","direction":"1","color":"#E30916","source_date":"2026-05-29","terminus":"PUERTA DE BOADILLA","offset_index":0}},{"type":"Feature","id":"metro_ligero-route-20","geometry":{"type":"LineString","coordinates":[[-3.66322,40.48433],[-3.66332,40.48395],[-3.66345,40.48374],[-3.66636,40.48111]]},"properties":{"kind":"route","mode":"metro_ligero","route":"ML1","name":"Metro Ligero ML1","destination":"PINAR DE CHAMARTIN","direction":"2","color":"#2754D3","source_date":"2026-05-29","terminus":"PINAR DE CHAMARTIN","offset_index":0}},{"type":"Feature","id":"metro_ligero-route-21","geometry":{"type":"LineString","coordinates":[[-3.66634,40.48109],[-3.66331,40.48381],[-3.66315,40.48404],[-3.66307,40.48431]]},"properties":{"kind":"route","mode":"metro_ligero","route":"ML1","name":"Metro Ligero ML1","destination":"FUENTE DE LA MORA","direction":"1","color":"#2754D3","source_date":"2026-05-29","terminus":"LAS TABLAS","offset_index":0}},{"type":"Feature","id":"metro_ligero-route-22","geometry":{"type":"LineString","coordinates":[[-3.66097,40.48738],[-3.66151,40.48747],[-3.66222,40.48754],[-3.66241,40.48751],[-3.66256,40.4874],[-3.66264,40.48726],[-3.66297,40.48608],[-3.66298,40.48591],[-3.66292,40.48558],[-3.66292,40.48539],[-3.66294,40.48527],[-3.66307,40.48494],[-3.66322,40.48433]]},"properties":{"kind":"route","mode":"metro_ligero","route":"ML1","name":"Metro Ligero ML1","destination":"FUENTE DE LA MORA","direction":"2","color":"#2754D3","source_date":"2026-05-29","terminus":"PINAR DE CHAMARTIN","offset_index":0}},{"type":"Feature","id":"metro_ligero-route-23","geometry":{"type":"LineString","coordinates":[[-3.65355,40.48547],[-3.6541,40.48523],[-3.65469,40.48516],[-3.6552,40.48495],[-3.65567,40.48487],[-3.65626,40.48486],[-3.65685,40.48489],[-3.65724,40.48494],[-3.6578,40.48505],[-3.65836,40.48522],[-3.65862,40.48533],[-3.65876,40.48543],[-3.65893,40.48561],[-3.65904,40.48583],[-3.65907,40.48598],[-3.65907,40.48614],[-3.659,40.48649],[-3.65901,40.48672],[-3.65908,40.48686],[-3.6592,40.48697],[-3.65936,40.48706],[-3.65953,40.48712],[-3.66097,40.48738]]},"properties":{"kind":"route","mode":"metro_ligero","route":"ML1","name":"Metro Ligero ML1","destination":"VIRGEN DEL CORTIJO","direction":"2","color":"#2754D3","source_date":"2026-05-29","terminus":"PINAR DE CHAMARTIN","offset_index":0}},{"type":"Feature","id":"metro_ligero-route-24","geometry":{"type":"LineString","coordinates":[[-3.66307,40.48431],[-3.66298,40.48469],[-3.66296,40.48497],[-3.66287,40.4854],[-3.66289,40.48561],[-3.66294,40.48587],[-3.66293,40.48608],[-3.66257,40.48733],[-3.66251,40.48741],[-3.66242,40.48746],[-3.6622,40.48751],[-3.661,40.4873]]},"properties":{"kind":"route","mode":"metro_ligero","route":"ML1","name":"Metro Ligero ML1","destination":"VIRGEN DEL CORTIJO","direction":"1","color":"#2754D3","source_date":"2026-05-29","terminus":"LAS TABLAS","offset_index":0}},{"type":"Feature","id":"metro_ligero-route-25","geometry":{"type":"LineString","coordinates":[[-3.65139,40.48904],[-3.65135,40.48852],[-3.65143,40.48792],[-3.65152,40.48769],[-3.65182,40.48742],[-3.65192,40.48729],[-3.65198,40.48714],[-3.65202,40.48677],[-3.6521,40.48662],[-3.65236,40.48632],[-3.65275,40.48598],[-3.65319,40.48567],[-3.65355,40.48547]]},"properties":{"kind":"route","mode":"metro_ligero","route":"ML1","name":"Metro Ligero ML1","destination":"ANTONIO SAURA","direction":"2","color":"#2754D3","source_date":"2026-05-29","terminus":"PINAR DE CHAMARTIN","offset_index":0}},{"type":"Feature","id":"metro_ligero-route-26","geometry":{"type":"LineString","coordinates":[[-3.661,40.4873],[-3.65971,40.48713],[-3.65938,40.48704],[-3.65921,40.48695],[-3.65911,40.48685],[-3.65904,40.48668],[-3.65903,40.48654],[-3.6591,40.48615],[-3.65911,40.486],[-3.65906,40.48579],[-3.65895,40.48558],[-3.65878,40.4854],[-3.6586,40.48529],[-3.65818,40.48513],[-3.65781,40.48502],[-3.65724,40.48491],[-3.65666,40.48484],[-3.65595,40.48483],[-3.65549,40.48486],[-3.6552,40.48491],[-3.65467,40.48513],[-3.65408,40.4852],[-3.65352,40.48545]]},"properties":{"kind":"route","mode":"metro_ligero","route":"ML1","name":"Metro Ligero ML1","destination":"ANTONIO SAURA","direction":"1","color":"#2754D3","source_date":"2026-05-29","terminus":"LAS TABLAS","offset_index":0}},{"type":"Feature","id":"metro_ligero-route-27","geometry":{"type":"LineString","coordinates":[[-3.65603,40.49371],[-3.65555,40.49341],[-3.65516,40.49322],[-3.65353,40.49219],[-3.6532,40.49192],[-3.653,40.4917],[-3.65268,40.49121],[-3.65219,40.49071],[-3.65184,40.49024],[-3.65157,40.4897],[-3.65147,40.48941],[-3.65139,40.48904]]},"properties":{"kind":"route","mode":"metro_ligero","route":"ML1","name":"Metro Ligero ML1","destination":"ALVAREZ DE VILLAAMIL","direction":"2","color":"#2754D3","source_date":"2026-05-29","terminus":"PINAR DE CHAMARTIN","offset_index":0}},{"type":"Feature","id":"metro_ligero-route-28","geometry":{"type":"LineString","coordinates":[[-3.65352,40.48545],[-3.65304,40.48573],[-3.65261,40.48604],[-3.65224,40.48639],[-3.65204,40.48664],[-3.65198,40.48679],[-3.65195,40.48709],[-3.65191,40.48723],[-3.65176,40.48743],[-3.65152,40.48763],[-3.65145,40.48773],[-3.6514,40.48787],[-3.65134,40.48816],[-3.65131,40.48846],[-3.65134,40.48904]]},"properties":{"kind":"route","mode":"metro_ligero","route":"ML1","name":"Metro Ligero ML1","destination":"ALVAREZ DE VILLAAMIL","direction":"1","color":"#2754D3","source_date":"2026-05-29","terminus":"LAS TABLAS","offset_index":0}},{"type":"Feature","id":"metro_ligero-route-29","geometry":{"type":"LineString","coordinates":[[-3.65875,40.4974],[-3.65923,40.49695],[-3.65937,40.4968],[-3.65946,40.49663],[-3.65952,40.49646],[-3.65953,40.49628],[-3.65949,40.4961],[-3.65939,40.49594],[-3.65915,40.49574],[-3.65679,40.49424],[-3.65649,40.494],[-3.65603,40.49371]]},"properties":{"kind":"route","mode":"metro_ligero","route":"ML1","name":"Metro Ligero ML1","destination":"BLASCO IBAÑEZ","direction":"2","color":"#2754D3","source_date":"2026-05-29","terminus":"PINAR DE CHAMARTIN","offset_index":0}},{"type":"Feature","id":"metro_ligero-route-30","geometry":{"type":"LineString","coordinates":[[-3.65134,40.48904],[-3.65141,40.48936],[-3.6515,40.48965],[-3.65163,40.48994],[-3.65179,40.49024],[-3.65214,40.49071],[-3.65264,40.49121],[-3.65296,40.49169],[-3.65315,40.49192],[-3.65347,40.49218],[-3.65519,40.49327],[-3.65547,40.49351],[-3.65592,40.49379]]},"properties":{"kind":"route","mode":"metro_ligero","route":"ML1","name":"Metro Ligero ML1","destination":"BLASCO IBAÑEZ","direction":"1","color":"#2754D3","source_date":"2026-05-29","terminus":"LAS TABLAS","offset_index":0}},{"type":"Feature","id":"metro_ligero-route-31","geometry":{"type":"LineString","coordinates":[[-3.66508,40.50543],[-3.66169,40.50311],[-3.6588,40.50069],[-3.6583,40.50023],[-3.65731,40.49959],[-3.65711,40.49943],[-3.65704,40.49931],[-3.657,40.49916],[-3.65702,40.49901],[-3.6571,40.49887],[-3.6579,40.49811],[-3.65826,40.49785],[-3.65875,40.4974]]},"properties":{"kind":"route","mode":"metro_ligero","route":"ML1","name":"Metro Ligero ML1","destination":"MARIA TUDOR","direction":"2","color":"#2754D3","source_date":"2026-05-29","terminus":"PINAR DE CHAMARTIN","offset_index":0}},{"type":"Feature","id":"metro_ligero-route-32","geometry":{"type":"LineString","coordinates":[[-3.65592,40.49379],[-3.65639,40.49409],[-3.65674,40.49425],[-3.65901,40.49568],[-3.65923,40.49583],[-3.65937,40.49598],[-3.65945,40.4961],[-3.6595,40.49628],[-3.65949,40.49641],[-3.65943,40.49659],[-3.65931,40.49673],[-3.6591,40.49689],[-3.65862,40.49733]]},"properties":{"kind":"route","mode":"metro_ligero","route":"ML1","name":"Metro Ligero ML1","destination":"MARIA TUDOR","direction":"1","color":"#2754D3","source_date":"2026-05-29","terminus":"LAS TABLAS","offset_index":0}},{"type":"Feature","id":"metro_ligero-route-33","geometry":{"type":"LineString","coordinates":[[-3.6689,40.50805],[-3.66508,40.50543]]},"properties":{"kind":"route","mode":"metro_ligero","route":"ML1","name":"Metro Ligero ML1","destination":"PALAS DE REY","direction":"2","color":"#2754D3","source_date":"2026-05-29","terminus":"PINAR DE CHAMARTIN","offset_index":0}},{"type":"Feature","id":"metro_ligero-route-34","geometry":{"type":"LineString","coordinates":[[-3.65862,40.49733],[-3.65814,40.49778],[-3.65789,40.49807],[-3.65705,40.49887],[-3.65698,40.49901],[-3.65696,40.49917],[-3.657,40.49931],[-3.65707,40.49943],[-3.65727,40.4996],[-3.65817,40.50017],[-3.65834,40.5003],[-3.65887,40.50079],[-3.66173,40.50318],[-3.66506,40.50545]]},"properties":{"kind":"route","mode":"metro_ligero","route":"ML1","name":"Metro Ligero ML1","destination":"PALAS DE REY","direction":"1","color":"#2754D3","source_date":"2026-05-29","terminus":"LAS TABLAS","offset_index":0}},{"type":"Feature","id":"metro_ligero-route-35","geometry":{"type":"LineString","coordinates":[[-3.66506,40.50545],[-3.66887,40.50807]]},"properties":{"kind":"route","mode":"metro_ligero","route":"ML1","name":"Metro Ligero ML1","destination":"LAS TABLAS","direction":"1","color":"#2754D3","source_date":"2026-05-29","terminus":"LAS TABLAS","offset_index":0}},{"type":"Feature","id":"metro_ligero-route-36","geometry":{"type":"LineString","coordinates":[[-3.78131,40.40227],[-3.7803,40.40097],[-3.78015,40.40065],[-3.78,40.40002],[-3.77993,40.39984],[-3.77975,40.39958],[-3.77957,40.39941],[-3.77931,40.39924],[-3.77895,40.39909],[-3.77788,40.39887],[-3.77761,40.39879],[-3.77586,40.39799],[-3.77566,40.39787],[-3.77545,40.39769],[-3.77479,40.39691]]},"properties":{"kind":"route","mode":"metro_ligero","route":"ML2","name":"Metro Ligero ML2","destination":"COLONIA JARDIN","direction":"2","color":"#7B1265","source_date":"2026-05-29","terminus":"COLONIA JARDIN","offset_index":0}},{"type":"Feature","id":"metro_ligero-route-37","geometry":{"type":"LineString","coordinates":[[-3.79112,40.44486],[-3.79117,40.44555],[-3.79109,40.44589],[-3.79099,40.44606],[-3.7906,40.44661],[-3.79048,40.44676],[-3.79017,40.44704],[-3.79011,40.44712],[-3.78996,40.44752],[-3.78984,40.44766],[-3.78969,40.44775],[-3.78926,40.44789],[-3.78873,40.44802],[-3.78687,40.44826],[-3.78623,40.44828]]},"properties":{"kind":"route","mode":"metro_ligero","route":"ML2","name":"Metro Ligero ML2","destination":"ESTACION DE ARAVACA","direction":"1","color":"#7B1265","source_date":"2026-05-29","terminus":"ESTACION DE ARAVACA","offset_index":0}},{"type":"Feature","id":"metro_ligero-route-38","geometry":{"type":"LineString","coordinates":[[-3.78398,40.39707],[-3.78169,40.39831],[-3.78116,40.39857],[-3.78064,40.39875],[-3.78025,40.39884],[-3.77978,40.39891],[-3.77912,40.39894],[-3.77832,40.39886],[-3.77765,40.3987],[-3.77716,40.39851],[-3.77601,40.39799],[-3.77564,40.39776],[-3.77529,40.39745],[-3.77482,40.3969]]},"properties":{"kind":"route","mode":"metro_ligero","route":"ML3","name":"Metro Ligero ML3","destination":"COLONIA JARDIN","direction":"2","color":"#E30916","source_date":"2026-05-29","terminus":"COLONIA JARDIN","offset_index":0}},{"type":"Feature","id":"metro_ligero-route-39","geometry":{"type":"LineString","coordinates":[[-3.7504,40.23869],[-3.74912,40.24001],[-3.74899,40.24021],[-3.74897,40.24035],[-3.7491,40.24152],[-3.74918,40.24173],[-3.74929,40.24189],[-3.74955,40.24213],[-3.74983,40.24229],[-3.75094,40.24273],[-3.75461,40.2438],[-3.75503,40.244],[-3.7557,40.24435],[-3.75641,40.24468],[-3.75653,40.24468],[-3.75663,40.24465],[-3.75754,40.24413]]},"properties":{"kind":"route","mode":"metro_ligero","route":"ML4-1","name":"Metro Ligero ML4-1","destination":"PLAZA DE TOROS","direction":"1","color":"#4FA800","source_date":"2026-05-29","terminus":"ESTRELLA POLAR NORTE","offset_index":0}},{"type":"Feature","id":"metro_ligero-route-40","geometry":{"type":"LineString","coordinates":[[-3.76235,40.24534],[-3.75879,40.24428],[-3.75866,40.24421],[-3.75841,40.24396],[-3.75825,40.24389],[-3.75807,40.24387],[-3.7579,40.2439],[-3.75751,40.24411]]},"properties":{"kind":"route","mode":"metro_ligero","route":"ML4-2","name":"Metro Ligero ML4-2","destination":"PLAZA DE TOROS","direction":"1","color":"#4FA800","source_date":"2026-05-29","terminus":"VENUS SUR","offset_index":0}},{"type":"Feature","id":"metro_ligero-route-41","geometry":{"type":"LineString","coordinates":[[-3.75754,40.24413],[-3.75792,40.24393],[-3.75808,40.2439],[-3.75826,40.24393],[-3.75844,40.24402],[-3.75864,40.24425],[-3.75876,40.2443],[-3.76234,40.24536]]},"properties":{"kind":"route","mode":"metro_ligero","route":"ML4-1","name":"Metro Ligero ML4-1","destination":"JULIO ROMERO DE TORRES","direction":"1","color":"#4FA800","source_date":"2026-05-29","terminus":"ESTRELLA POLAR NORTE","offset_index":0}},{"type":"Feature","id":"metro_ligero-route-42","geometry":{"type":"LineString","coordinates":[[-3.76636,40.24597],[-3.7657,40.24582],[-3.76549,40.24582],[-3.7654,40.24585],[-3.76528,40.24593],[-3.765,40.24627],[-3.76491,40.24636],[-3.76478,40.24641],[-3.76462,40.24641],[-3.76394,40.24611],[-3.76291,40.24552],[-3.76235,40.24534]]},"properties":{"kind":"route","mode":"metro_ligero","route":"ML4-2","name":"Metro Ligero ML4-2","destination":"JULIO ROMERO DE TORRES","direction":"1","color":"#4FA800","source_date":"2026-05-29","terminus":"VENUS SUR","offset_index":0}},{"type":"Feature","id":"metro_ligero-route-43","geometry":{"type":"LineString","coordinates":[[-3.76635,40.246],[-3.76688,40.24612],[-3.76706,40.24612],[-3.76727,40.24605],[-3.7674,40.2459],[-3.76855,40.24302],[-3.76862,40.24288],[-3.76882,40.24262],[-3.7689,40.24245],[-3.76953,40.24093],[-3.76959,40.24062]]},"properties":{"kind":"route","mode":"metro_ligero","route":"ML4-1","name":"Metro Ligero ML4-1","destination":"PARLA CENTRO - BULEVAR NORTE","direction":"1","color":"#4FA800","source_date":"2026-05-29","terminus":"ESTRELLA POLAR NORTE","offset_index":0}},{"type":"Feature","id":"metro_ligero-route-44","geometry":{"type":"LineString","coordinates":[[-3.77055,40.23769],[-3.77037,40.2379],[-3.77031,40.23801],[-3.77029,40.23814],[-3.77031,40.23842],[-3.77027,40.2386],[-3.76962,40.24027],[-3.76942,40.24057]]},"properties":{"kind":"route","mode":"metro_ligero","route":"ML4-2","name":"Metro Ligero ML4-2","destination":"PARLA CENTRO - BULEVAR NORTE","direction":"1","color":"#4FA800","source_date":"2026-05-29","terminus":"VENUS SUR","offset_index":0}},{"type":"Feature","id":"metro_ligero-route-45","geometry":{"type":"LineString","coordinates":[[-3.76959,40.24062],[-3.76963,40.24036],[-3.77032,40.23859],[-3.77035,40.23806],[-3.77062,40.23771]]},"properties":{"kind":"route","mode":"metro_ligero","route":"ML4-1","name":"Metro Ligero ML4-1","destination":"IGLESIA CENTRO","direction":"1","color":"#4FA800","source_date":"2026-05-29","terminus":"ESTRELLA POLAR NORTE","offset_index":0}},{"type":"Feature","id":"metro_ligero-route-46","geometry":{"type":"LineString","coordinates":[[-3.77235,40.23472],[-3.77183,40.23538],[-3.77165,40.23577],[-3.77138,40.23622],[-3.77095,40.23718],[-3.77055,40.23769]]},"properties":{"kind":"route","mode":"metro_ligero","route":"ML4-2","name":"Metro Ligero ML4-2","destination":"IGLESIA CENTRO","direction":"1","color":"#4FA800","source_date":"2026-05-29","terminus":"VENUS SUR","offset_index":0}},{"type":"Feature","id":"metro_ligero-route-47","geometry":{"type":"LineString","coordinates":[[-3.77062,40.23771],[-3.77096,40.23727],[-3.77138,40.2363],[-3.77167,40.23581],[-3.77185,40.23541],[-3.77238,40.23473]]},"properties":{"kind":"route","mode":"metro_ligero","route":"ML4-1","name":"Metro Ligero ML4-1","destination":"BULEVAR SUR","direction":"1","color":"#4FA800","source_date":"2026-05-29","terminus":"ESTRELLA POLAR NORTE","offset_index":0}},{"type":"Feature","id":"metro_ligero-route-48","geometry":{"type":"LineString","coordinates":[[-3.76998,40.23142],[-3.77015,40.23169],[-3.77025,40.23177],[-3.7704,40.23181],[-3.77087,40.23179],[-3.77106,40.23186],[-3.77117,40.23196],[-3.77209,40.23357],[-3.77256,40.2342],[-3.77259,40.23428],[-3.77257,40.23442],[-3.77235,40.23472]]},"properties":{"kind":"route","mode":"metro_ligero","route":"ML4-2","name":"Metro Ligero ML4-2","destination":"BULEVAR SUR","direction":"1","color":"#4FA800","source_date":"2026-05-29","terminus":"VENUS SUR","offset_index":0}},{"type":"Feature","id":"metro_ligero-route-49","geometry":{"type":"LineString","coordinates":[[-3.77238,40.23473],[-3.77259,40.23446],[-3.77263,40.23432],[-3.77261,40.23419],[-3.77214,40.23357],[-3.77121,40.23195],[-3.77107,40.23183],[-3.77091,40.23177],[-3.77074,40.23175],[-3.77044,40.23178],[-3.77028,40.23174],[-3.77017,40.23165],[-3.77002,40.23141]]},"properties":{"kind":"route","mode":"metro_ligero","route":"ML4-1","name":"Metro Ligero ML4-1","destination":"REYES CATOLICOS","direction":"1","color":"#4FA800","source_date":"2026-05-29","terminus":"ESTRELLA POLAR NORTE","offset_index":0}},{"type":"Feature","id":"metro_ligero-route-50","geometry":{"type":"LineString","coordinates":[[-3.76509,40.23116],[-3.76956,40.23105],[-3.76969,40.23108],[-3.76978,40.23113],[-3.76998,40.23142]]},"properties":{"kind":"route","mode":"metro_ligero","route":"ML4-2","name":"Metro Ligero ML4-2","destination":"REYES CATOLICOS","direction":"1","color":"#4FA800","source_date":"2026-05-29","terminus":"VENUS SUR","offset_index":0}},{"type":"Feature","id":"metro_ligero-route-51","geometry":{"type":"LineString","coordinates":[[-3.77002,40.23141],[-3.76981,40.23111],[-3.76967,40.23104],[-3.76956,40.23102],[-3.76508,40.23113]]},"properties":{"kind":"route","mode":"metro_ligero","route":"ML4-1","name":"Metro Ligero ML4-1","destination":"ISABEL II","direction":"1","color":"#4FA800","source_date":"2026-05-29","terminus":"ESTRELLA POLAR NORTE","offset_index":0}},{"type":"Feature","id":"metro_ligero-route-52","geometry":{"type":"LineString","coordinates":[[-3.76145,40.22817],[-3.76167,40.22841],[-3.76172,40.22851],[-3.76173,40.22861],[-3.7617,40.22888],[-3.76174,40.22903],[-3.76206,40.22942],[-3.76214,40.22958],[-3.76216,40.22971],[-3.76221,40.23088],[-3.76225,40.23101],[-3.76232,40.23109],[-3.76246,40.23117],[-3.76263,40.23121],[-3.76509,40.23116]]},"properties":{"kind":"route","mode":"metro_ligero","route":"ML4-2","name":"Metro Ligero ML4-2","destination":"ISABEL II","direction":"1","color":"#4FA800","source_date":"2026-05-29","terminus":"VENUS SUR","offset_index":0}},{"type":"Feature","id":"metro_ligero-route-53","geometry":{"type":"LineString","coordinates":[[-3.76508,40.23113],[-3.76266,40.23118],[-3.76249,40.23115],[-3.76237,40.23109],[-3.7623,40.23101],[-3.76225,40.2309],[-3.76219,40.2296],[-3.76211,40.22942],[-3.76179,40.22902],[-3.76175,40.22889],[-3.76177,40.22859],[-3.76175,40.22848],[-3.76168,40.22837],[-3.76149,40.22815]]},"properties":{"kind":"route","mode":"metro_ligero","route":"ML4-1","name":"Metro Ligero ML4-1","destination":"PARQUE PARLA ESTE","direction":"1","color":"#4FA800","source_date":"2026-05-29","terminus":"ESTRELLA POLAR NORTE","offset_index":0}},{"type":"Feature","id":"metro_ligero-route-54","geometry":{"type":"LineString","coordinates":[[-3.76067,40.22341],[-3.76,40.22528],[-3.75995,40.22555],[-3.75995,40.22573],[-3.75999,40.22591],[-3.76006,40.22608],[-3.76086,40.22747],[-3.76103,40.22771],[-3.76145,40.22817]]},"properties":{"kind":"route","mode":"metro_ligero","route":"ML4-2","name":"Metro Ligero ML4-2","destination":"PARQUE PARLA ESTE","direction":"1","color":"#4FA800","source_date":"2026-05-29","terminus":"VENUS SUR","offset_index":0}},{"type":"Feature","id":"metro_ligero-route-55","geometry":{"type":"LineString","coordinates":[[-3.76234,40.24536],[-3.76285,40.24553],[-3.76389,40.24612],[-3.76449,40.2464],[-3.76465,40.24645],[-3.76478,40.24644],[-3.76493,40.24639],[-3.76505,40.24628],[-3.76533,40.24594],[-3.76546,40.24586],[-3.76564,40.24585],[-3.76635,40.246]]},"properties":{"kind":"route","mode":"metro_ligero","route":"ML4-1","name":"Metro Ligero ML4-1","destination":"LA BALLENA","direction":"1","color":"#4FA800","source_date":"2026-05-29","terminus":"ESTRELLA POLAR NORTE","offset_index":0}},{"type":"Feature","id":"metro_ligero-route-56","geometry":{"type":"LineString","coordinates":[[-3.76942,40.24057],[-3.76924,40.24083],[-3.76865,40.2423],[-3.76859,40.24247],[-3.76856,40.24283],[-3.76852,40.24297],[-3.76736,40.2459],[-3.76725,40.24602],[-3.76704,40.24609],[-3.76684,40.24608],[-3.76636,40.24597]]},"properties":{"kind":"route","mode":"metro_ligero","route":"ML4-2","name":"Metro Ligero ML4-2","destination":"LA BALLENA","direction":"1","color":"#4FA800","source_date":"2026-05-29","terminus":"VENUS SUR","offset_index":0}},{"type":"Feature","id":"metro_ligero-route-57","geometry":{"type":"LineString","coordinates":[[-3.76149,40.22815],[-3.76101,40.22763],[-3.7609,40.22747],[-3.76015,40.22615],[-3.76008,40.22598],[-3.76003,40.2258],[-3.76003,40.22553],[-3.76007,40.22535],[-3.76076,40.22343]]},"properties":{"kind":"route","mode":"metro_ligero","route":"ML4-1","name":"Metro Ligero ML4-1","destination":"AVENIDA SISTEMA SOLAR","direction":"1","color":"#4FA800","source_date":"2026-05-29","terminus":"ESTRELLA POLAR NORTE","offset_index":0}},{"type":"Feature","id":"metro_ligero-route-58","geometry":{"type":"LineString","coordinates":[[-3.75678,40.22255],[-3.7569,40.22221],[-3.75695,40.22214],[-3.75707,40.22207],[-3.75725,40.22204],[-3.76047,40.22272],[-3.76069,40.22278],[-3.76077,40.22285],[-3.76081,40.22293],[-3.7608,40.22306],[-3.76067,40.22341]]},"properties":{"kind":"route","mode":"metro_ligero","route":"ML4-2","name":"Metro Ligero ML4-2","destination":"AVENIDA SISTEMA SOLAR","direction":"1","color":"#4FA800","source_date":"2026-05-29","terminus":"VENUS SUR","offset_index":0}},{"type":"Feature","id":"metro_ligero-route-59","geometry":{"type":"LineString","coordinates":[[-3.76076,40.22343],[-3.76088,40.22309],[-3.76088,40.22296],[-3.76084,40.22287],[-3.76074,40.22277],[-3.76053,40.2227],[-3.75457,40.22145],[-3.75435,40.22148],[-3.75421,40.22156],[-3.75413,40.22168],[-3.75403,40.22194]]},"properties":{"kind":"route","mode":"metro_ligero","route":"ML4-1","name":"Metro Ligero ML4-1","destination":"TIERRA NORTE","direction":"1","color":"#4FA800","source_date":"2026-05-29","terminus":"ESTRELLA POLAR NORTE","offset_index":0}},{"type":"Feature","id":"metro_ligero-route-60","geometry":{"type":"LineString","coordinates":[[-3.75525,40.22684],[-3.75678,40.22255]]},"properties":{"kind":"route","mode":"metro_ligero","route":"ML4-2","name":"Metro Ligero ML4-2","destination":"TIERRA SUR","direction":"1","color":"#4FA800","source_date":"2026-05-29","terminus":"VENUS SUR","offset_index":0}},{"type":"Feature","id":"metro_ligero-route-61","geometry":{"type":"LineString","coordinates":[[-3.75403,40.22194],[-3.75249,40.22626]]},"properties":{"kind":"route","mode":"metro_ligero","route":"ML4-1","name":"Metro Ligero ML4-1","destination":"VENUS NORTE","direction":"1","color":"#4FA800","source_date":"2026-05-29","terminus":"ESTRELLA POLAR NORTE","offset_index":0}},{"type":"Feature","id":"metro_ligero-route-62","geometry":{"type":"LineString","coordinates":[[-3.75386,40.23073],[-3.75525,40.22684]]},"properties":{"kind":"route","mode":"metro_ligero","route":"ML4-2","name":"Metro Ligero ML4-2","destination":"VENUS SUR","direction":"1","color":"#4FA800","source_date":"2026-05-29","terminus":"VENUS SUR","offset_index":0}},{"type":"Feature","id":"metro_ligero-route-63","geometry":{"type":"LineString","coordinates":[[-3.75243,40.23471],[-3.75386,40.23073]]},"properties":{"kind":"route","mode":"metro_ligero","route":"ML4-2","name":"Metro Ligero ML4-2","destination":"ESTRELLA POLAR SUR","direction":"1","color":"#4FA800","source_date":"2026-05-29","terminus":"VENUS SUR","offset_index":0}},{"type":"Feature","id":"metro_ligero-route-64","geometry":{"type":"LineString","coordinates":[[-3.75249,40.22626],[-3.7511,40.23015]]},"properties":{"kind":"route","mode":"metro_ligero","route":"ML4-1","name":"Metro Ligero ML4-1","destination":"ESTRELLA POLAR NORTE","direction":"1","color":"#4FA800","source_date":"2026-05-29","terminus":"ESTRELLA POLAR NORTE","offset_index":0}},{"type":"Feature","id":"metro_ligero-route-65","geometry":{"type":"LineString","coordinates":[[-3.7511,40.23015],[-3.74967,40.23413]]},"properties":{"kind":"route","mode":"metro_ligero","route":"ML4-1","name":"Metro Ligero ML4-1","destination":"JAIME I NORTE","direction":"1","color":"#4FA800","source_date":"2026-05-29","terminus":"ESTRELLA POLAR NORTE","offset_index":0}},{"type":"Feature","id":"metro_ligero-route-66","geometry":{"type":"LineString","coordinates":[[-3.75043,40.23871],[-3.7507,40.23843],[-3.75076,40.23832],[-3.75077,40.23825],[-3.75072,40.23751],[-3.75081,40.23719],[-3.75097,40.23695],[-3.75176,40.23623],[-3.75194,40.23601],[-3.75207,40.23574],[-3.75243,40.23471]]},"properties":{"kind":"route","mode":"metro_ligero","route":"ML4-2","name":"Metro Ligero ML4-2","destination":"JAIME I SUR","direction":"1","color":"#4FA800","source_date":"2026-05-29","terminus":"VENUS SUR","offset_index":0}},{"type":"Feature","id":"metro_ligero-route-67","geometry":{"type":"LineString","coordinates":[[-3.74967,40.23413],[-3.7493,40.23519],[-3.74925,40.23536],[-3.74926,40.2356],[-3.74935,40.2359],[-3.74956,40.23618],[-3.75037,40.23682],[-3.75052,40.23701],[-3.7506,40.23718],[-3.75066,40.23744],[-3.75073,40.23825],[-3.75067,40.23841],[-3.7504,40.23869]]},"properties":{"kind":"route","mode":"metro_ligero","route":"ML4-1","name":"Metro Ligero ML4-1","destination":"POLIGONO INDUSTRIAL CIUDAD DE PARLA","direction":"1","color":"#4FA800","source_date":"2026-05-29","terminus":"ESTRELLA POLAR NORTE","offset_index":0}},{"type":"Feature","id":"metro_ligero-route-68","geometry":{"type":"LineString","coordinates":[[-3.75751,40.24411],[-3.75669,40.24457],[-3.75652,40.24462],[-3.75633,40.2446],[-3.75573,40.24433],[-3.75494,40.24391],[-3.75453,40.24374],[-3.7509,40.24268],[-3.74986,40.24227],[-3.74953,40.24208],[-3.74929,40.24183],[-3.74914,40.24153],[-3.74902,40.2404],[-3.74902,40.24023],[-3.74907,40.24012],[-3.74916,40.24002],[-3.75043,40.23871]]},"properties":{"kind":"route","mode":"metro_ligero","route":"ML4-2","name":"Metro Ligero ML4-2","destination":"POLIGONO INDUSTRIAL CIUDAD DE PARLA","direction":"1","color":"#4FA800","source_date":"2026-05-29","terminus":"VENUS SUR","offset_index":0}},{"type":"Feature","id":"metro_ligero-route-69","geometry":{"type":"LineString","coordinates":[[-3.77482,40.39695],[-3.77525,40.39746],[-3.7753,40.39757],[-3.77543,40.39772],[-3.77562,40.39788],[-3.7758,40.398],[-3.77759,40.39882],[-3.77787,40.3989],[-3.77893,40.39912],[-3.77929,40.39926],[-3.77955,40.39943],[-3.77972,40.3996],[-3.77989,40.39985],[-3.77996,40.40003],[-3.78011,40.40066],[-3.78026,40.40098],[-3.78127,40.40228]]},"properties":{"kind":"route","mode":"metro_ligero","route":"ML2","name":"Metro Ligero ML2","destination":"PRADO DE LA VEGA","direction":"1","color":"#7B1265","source_date":"2026-05-29","terminus":"ESTACION DE ARAVACA","offset_index":0}},{"type":"Feature","id":"metro_ligero-route-70","geometry":{"type":"LineString","coordinates":[[-3.78449,40.40718],[-3.78436,40.40698],[-3.78412,40.40669],[-3.78398,40.40641],[-3.78238,40.40432],[-3.78227,40.40406],[-3.78219,40.40355],[-3.78211,40.40332],[-3.78197,40.4031],[-3.78131,40.40227]]},"properties":{"kind":"route","mode":"metro_ligero","route":"ML2","name":"Metro Ligero ML2","destination":"PRADO DE LA VEGA","direction":"2","color":"#7B1265","source_date":"2026-05-29","terminus":"COLONIA JARDIN","offset_index":0}},{"type":"Feature","id":"metro_ligero-route-71","geometry":{"type":"LineString","coordinates":[[-3.78127,40.40228],[-3.78194,40.40312],[-3.78208,40.40333],[-3.78216,40.40355],[-3.78223,40.40407],[-3.78235,40.40433],[-3.78395,40.40643],[-3.78408,40.4067],[-3.78445,40.40719]]},"properties":{"kind":"route","mode":"metro_ligero","route":"ML2","name":"Metro Ligero ML2","destination":"COLONIA DE LOS ANGELES","direction":"1","color":"#7B1265","source_date":"2026-05-29","terminus":"ESTACION DE ARAVACA","offset_index":0}},{"type":"Feature","id":"metro_ligero-route-72","geometry":{"type":"LineString","coordinates":[[-3.78758,40.41044],[-3.78711,40.40961],[-3.78647,40.40875],[-3.78632,40.40862],[-3.7862,40.40856],[-3.78549,40.40838],[-3.78524,40.40824],[-3.78511,40.40809],[-3.78449,40.40718]]},"properties":{"kind":"route","mode":"metro_ligero","route":"ML2","name":"Metro Ligero ML2","destination":"COLONIA DE LOS ANGELES","direction":"2","color":"#7B1265","source_date":"2026-05-29","terminus":"COLONIA JARDIN","offset_index":0}},{"type":"Feature","id":"metro_ligero-route-73","geometry":{"type":"LineString","coordinates":[[-3.78445,40.40719],[-3.78508,40.40811],[-3.78521,40.40826],[-3.78547,40.40841],[-3.78618,40.40858],[-3.78629,40.40865],[-3.78644,40.40877],[-3.78708,40.40962],[-3.78754,40.41045]]},"properties":{"kind":"route","mode":"metro_ligero","route":"ML2","name":"Metro Ligero ML2","destination":"PRADO DEL REY","direction":"1","color":"#7B1265","source_date":"2026-05-29","terminus":"ESTACION DE ARAVACA","offset_index":0}},{"type":"Feature","id":"metro_ligero-route-74","geometry":{"type":"LineString","coordinates":[[-3.79268,40.41536],[-3.79268,40.41505],[-3.79265,40.41493],[-3.79263,40.41466],[-3.79257,40.41453],[-3.79244,40.41443],[-3.79226,40.41438],[-3.79025,40.41396],[-3.78971,40.41396],[-3.78956,40.41391],[-3.78946,40.41384],[-3.78937,40.41372],[-3.78758,40.41044]]},"properties":{"kind":"route","mode":"metro_ligero","route":"ML2","name":"Metro Ligero ML2","destination":"PRADO DEL REY","direction":"2","color":"#7B1265","source_date":"2026-05-29","terminus":"COLONIA JARDIN","offset_index":0}},{"type":"Feature","id":"metro_ligero-route-75","geometry":{"type":"LineString","coordinates":[[-3.78754,40.41045],[-3.7894,40.41383],[-3.78954,40.41393],[-3.7897,40.41398],[-3.79024,40.41399],[-3.79242,40.41446],[-3.79254,40.41455],[-3.7926,40.41466],[-3.7926,40.41536]]},"properties":{"kind":"route","mode":"metro_ligero","route":"ML2","name":"Metro Ligero ML2","destination":"SOMOSAGUAS SUR","direction":"1","color":"#7B1265","source_date":"2026-05-29","terminus":"ESTACION DE ARAVACA","offset_index":0}},{"type":"Feature","id":"metro_ligero-route-76","geometry":{"type":"LineString","coordinates":[[-3.7988,40.4193],[-3.7979,40.41882],[-3.79774,40.41868],[-3.79746,40.41837],[-3.7972,40.41821],[-3.79695,40.41813],[-3.79645,40.4181],[-3.79618,40.41803],[-3.79506,40.41753],[-3.79318,40.41678],[-3.79293,40.41665],[-3.79278,40.41652],[-3.7927,40.4163],[-3.79267,40.41587],[-3.7927,40.41566],[-3.79268,40.41536]]},"properties":{"kind":"route","mode":"metro_ligero","route":"ML2","name":"Metro Ligero ML2","destination":"SOMOSAGUAS SUR","direction":"2","color":"#7B1265","source_date":"2026-05-29","terminus":"COLONIA JARDIN","offset_index":0}},{"type":"Feature","id":"metro_ligero-route-77","geometry":{"type":"LineString","coordinates":[[-3.7926,40.41536],[-3.79266,40.41631],[-3.79275,40.41653],[-3.7929,40.41667],[-3.79316,40.41681],[-3.79504,40.41756],[-3.79617,40.41806],[-3.79645,40.41812],[-3.79694,40.41816],[-3.79719,40.41824],[-3.79743,40.41839],[-3.79771,40.4187],[-3.79788,40.41884],[-3.79877,40.41933]]},"properties":{"kind":"route","mode":"metro_ligero","route":"ML2","name":"Metro Ligero ML2","destination":"SOMOSAGUAS CENTRO","direction":"1","color":"#7B1265","source_date":"2026-05-29","terminus":"ESTACION DE ARAVACA","offset_index":0}},{"type":"Feature","id":"metro_ligero-route-78","geometry":{"type":"LineString","coordinates":[[-3.80457,40.42303],[-3.80378,40.42226],[-3.80361,40.42195],[-3.80348,40.42181],[-3.80335,40.42174],[-3.80288,40.42164],[-3.80276,40.42159],[-3.80209,40.42115],[-3.80022,40.42008],[-3.7988,40.4193]]},"properties":{"kind":"route","mode":"metro_ligero","route":"ML2","name":"Metro Ligero ML2","destination":"SOMOSAGUAS CENTRO","direction":"2","color":"#7B1265","source_date":"2026-05-29","terminus":"COLONIA JARDIN","offset_index":0}},{"type":"Feature","id":"metro_ligero-route-79","geometry":{"type":"LineString","coordinates":[[-3.79877,40.41933],[-3.79985,40.41991],[-3.80206,40.42117],[-3.80274,40.42161],[-3.80287,40.42167],[-3.80333,40.42177],[-3.80346,40.42183],[-3.80358,40.42196],[-3.80375,40.42227],[-3.80453,40.42305]]},"properties":{"kind":"route","mode":"metro_ligero","route":"ML2","name":"Metro Ligero ML2","destination":"POZUELO OESTE","direction":"1","color":"#7B1265","source_date":"2026-05-29","terminus":"ESTACION DE ARAVACA","offset_index":0}},{"type":"Feature","id":"metro_ligero-route-80","geometry":{"type":"LineString","coordinates":[[-3.80758,40.4306],[-3.80889,40.43018],[-3.80977,40.42982],[-3.80998,40.42976],[-3.81043,40.42972],[-3.81104,40.42978],[-3.81127,40.42973],[-3.8114,40.42962],[-3.81147,40.42949],[-3.81162,40.42883],[-3.81162,40.42864],[-3.81159,40.42855],[-3.81147,40.42839],[-3.81129,40.42826],[-3.81107,40.42819],[-3.81051,40.42805],[-3.81031,40.42797],[-3.81004,40.42779],[-3.80984,40.42758],[-3.80842,40.42581],[-3.80809,40.42544],[-3.8078,40.42518],[-3.80741,40.42488],[-3.80709,40.42467],[-3.80527,40.42367],[-3.80495,40.42341],[-3.80457,40.42303]]},"properties":{"kind":"route","mode":"metro_ligero","route":"ML2","name":"Metro Ligero ML2","destination":"POZUELO OESTE","direction":"2","color":"#7B1265","source_date":"2026-05-29","terminus":"COLONIA JARDIN","offset_index":0}},{"type":"Feature","id":"metro_ligero-route-81","geometry":{"type":"LineString","coordinates":[[-3.80453,40.42305],[-3.80493,40.42343],[-3.80525,40.42369],[-3.80707,40.42469],[-3.80738,40.4249],[-3.80778,40.4252],[-3.80806,40.42546],[-3.80839,40.42582],[-3.8098,40.4276],[-3.81001,40.42782],[-3.81028,40.42799],[-3.81049,40.42808],[-3.81106,40.42822],[-3.81127,40.42829],[-3.81144,40.42841],[-3.81155,40.42856],[-3.81158,40.42865],[-3.81158,40.42882],[-3.81143,40.42948],[-3.81137,40.42961],[-3.81124,40.4297],[-3.81104,40.42975],[-3.81043,40.42969],[-3.80997,40.42973],[-3.80976,40.42979],[-3.80877,40.43019],[-3.80754,40.43055]]},"properties":{"kind":"route","mode":"metro_ligero","route":"ML2","name":"Metro Ligero ML2","destination":"BELGICA","direction":"1","color":"#7B1265","source_date":"2026-05-29","terminus":"ESTACION DE ARAVACA","offset_index":0}},{"type":"Feature","id":"metro_ligero-route-82","geometry":{"type":"LineString","coordinates":[[-3.80164,40.43255],[-3.80194,40.43245],[-3.80226,40.43232],[-3.80641,40.43095],[-3.80758,40.4306]]},"properties":{"kind":"route","mode":"metro_ligero","route":"ML2","name":"Metro Ligero ML2","destination":"BELGICA","direction":"2","color":"#7B1265","source_date":"2026-05-29","terminus":"COLONIA JARDIN","offset_index":0}},{"type":"Feature","id":"metro_ligero-route-83","geometry":{"type":"LineString","coordinates":[[-3.80754,40.43055],[-3.80161,40.4325]]},"properties":{"kind":"route","mode":"metro_ligero","route":"ML2","name":"Metro Ligero ML2","destination":"DOS CASTILLAS","direction":"1","color":"#7B1265","source_date":"2026-05-29","terminus":"ESTACION DE ARAVACA","offset_index":0}},{"type":"Feature","id":"metro_ligero-route-84","geometry":{"type":"LineString","coordinates":[[-3.79526,40.43339],[-3.79565,40.43316],[-3.79584,40.43309],[-3.79606,40.43305],[-3.79634,40.43306],[-3.79729,40.43321],[-3.79781,40.4332],[-3.79833,40.43311],[-3.79969,40.43267],[-3.79994,40.43268],[-3.80008,40.43273],[-3.8003,40.43286],[-3.80054,40.4329],[-3.80072,40.43286],[-3.80164,40.43255]]},"properties":{"kind":"route","mode":"metro_ligero","route":"ML2","name":"Metro Ligero ML2","destination":"DOS CASTILLAS","direction":"2","color":"#7B1265","source_date":"2026-05-29","terminus":"COLONIA JARDIN","offset_index":0}},{"type":"Feature","id":"metro_ligero-route-85","geometry":{"type":"LineString","coordinates":[[-3.80161,40.4325],[-3.801,40.4327],[-3.8007,40.43283],[-3.80053,40.43287],[-3.80032,40.43283],[-3.8001,40.4327],[-3.79995,40.43265],[-3.79978,40.43263],[-3.79967,40.43264],[-3.79832,40.43308],[-3.7978,40.43317],[-3.79729,40.43317],[-3.79635,40.43302],[-3.79605,40.43302],[-3.79582,40.43306],[-3.79563,40.43313],[-3.79523,40.43336]]},"properties":{"kind":"route","mode":"metro_ligero","route":"ML2","name":"Metro Ligero ML2","destination":"CAMPUS DE SOMOSAGUAS","direction":"1","color":"#7B1265","source_date":"2026-05-29","terminus":"ESTACION DE ARAVACA","offset_index":0}},{"type":"Feature","id":"metro_ligero-route-86","geometry":{"type":"LineString","coordinates":[[-3.7931,40.43931],[-3.79318,40.4389],[-3.79319,40.43874],[-3.79316,40.4386],[-3.79293,40.43798],[-3.79289,40.43781],[-3.79289,40.43745],[-3.79297,40.43715],[-3.79418,40.43413],[-3.79427,40.43402],[-3.79438,40.43392],[-3.79526,40.43339]]},"properties":{"kind":"route","mode":"metro_ligero","route":"ML2","name":"Metro Ligero ML2","destination":"CAMPUS DE SOMOSAGUAS","direction":"2","color":"#7B1265","source_date":"2026-05-29","terminus":"COLONIA JARDIN","offset_index":0}},{"type":"Feature","id":"metro_ligero-route-87","geometry":{"type":"LineString","coordinates":[[-3.79523,40.43336],[-3.79436,40.4339],[-3.79424,40.434],[-3.79415,40.43412],[-3.79293,40.43714],[-3.79286,40.43745],[-3.79286,40.43781],[-3.79292,40.43808],[-3.79314,40.43868],[-3.79314,40.43877],[-3.79308,40.43895],[-3.79301,40.43929]]},"properties":{"kind":"route","mode":"metro_ligero","route":"ML2","name":"Metro Ligero ML2","destination":"AVENIDA DE EUROPA","direction":"1","color":"#7B1265","source_date":"2026-05-29","terminus":"ESTACION DE ARAVACA","offset_index":0}},{"type":"Feature","id":"metro_ligero-route-88","geometry":{"type":"LineString","coordinates":[[-3.79123,40.44485],[-3.79121,40.44457],[-3.79113,40.44435],[-3.79107,40.44339],[-3.7911,40.44296],[-3.79118,40.44259],[-3.79132,40.44225],[-3.79146,40.442],[-3.79296,40.43979],[-3.79305,40.43958],[-3.7931,40.43931]]},"properties":{"kind":"route","mode":"metro_ligero","route":"ML2","name":"Metro Ligero ML2","destination":"AVENIDA DE EUROPA","direction":"2","color":"#7B1265","source_date":"2026-05-29","terminus":"COLONIA JARDIN","offset_index":0}},{"type":"Feature","id":"metro_ligero-route-89","geometry":{"type":"LineString","coordinates":[[-3.79301,40.43929],[-3.79289,40.43983],[-3.79142,40.44199],[-3.79129,40.44224],[-3.79115,40.44258],[-3.79106,40.44295],[-3.79103,40.44339],[-3.79112,40.44486]]},"properties":{"kind":"route","mode":"metro_ligero","route":"ML2","name":"Metro Ligero ML2","destination":"BERNA","direction":"1","color":"#7B1265","source_date":"2026-05-29","terminus":"ESTACION DE ARAVACA","offset_index":0}},{"type":"Feature","id":"metro_ligero-route-90","geometry":{"type":"LineString","coordinates":[[-3.78623,40.44839],[-3.78659,40.44837],[-3.7869,40.44829],[-3.78885,40.44803],[-3.78956,40.44783],[-3.78987,40.44768],[-3.79,40.44753],[-3.7902,40.44706],[-3.79051,40.44678],[-3.79064,40.44663],[-3.79103,40.44607],[-3.79113,40.4459],[-3.79121,40.44555],[-3.79121,40.44529],[-3.79125,40.44506],[-3.79123,40.44485]]},"properties":{"kind":"route","mode":"metro_ligero","route":"ML2","name":"Metro Ligero ML2","destination":"BERNA","direction":"2","color":"#7B1265","source_date":"2026-05-29","terminus":"COLONIA JARDIN","offset_index":0}},{"type":"Feature","id":"metro_ligero-route-91","geometry":{"type":"LineString","coordinates":[[-3.81675,40.3987],[-3.81554,40.39883],[-3.81534,40.3989],[-3.81486,40.39916],[-3.81464,40.39921],[-3.81441,40.39922],[-3.8142,40.39919],[-3.81396,40.3991],[-3.8126,40.39839],[-3.81241,40.39832],[-3.81217,40.39829],[-3.81193,40.39829],[-3.81113,40.39846],[-3.81067,40.39854],[-3.80987,40.3986],[-3.80728,40.39862],[-3.80624,40.3986],[-3.80595,40.39858],[-3.80561,40.3985],[-3.80538,40.3984],[-3.80405,40.39777],[-3.80396,40.39768],[-3.80389,40.39755],[-3.80388,40.39688]]},"properties":{"kind":"route","mode":"metro_ligero","route":"ML3","name":"Metro Ligero ML3","destination":"COCHERAS","direction":"2","color":"#E30916","source_date":"2026-05-29","terminus":"COLONIA JARDIN","offset_index":0}},{"type":"Feature","id":"metro_ligero-route-92","geometry":{"type":"LineString","coordinates":[[-3.79557,40.39457],[-3.79607,40.3945],[-3.79664,40.39449],[-3.79844,40.39427],[-3.79905,40.39424],[-3.80099,40.39428],[-3.8012,40.39434],[-3.8016,40.39451],[-3.80174,40.39454],[-3.80306,40.3945],[-3.80335,40.39453],[-3.80353,40.3946],[-3.80364,40.39468],[-3.80374,40.3948],[-3.80381,40.39496],[-3.80383,40.39688]]},"properties":{"kind":"route","mode":"metro_ligero","route":"ML3","name":"Metro Ligero ML3","destination":"COCHERAS","direction":"1","color":"#E30916","source_date":"2026-05-29","terminus":"PUERTA DE BOADILLA","offset_index":0}},{"type":"Feature","id":"metro_ligero-route-93","geometry":{"type":"LineString","coordinates":[[-3.78993,40.39524],[-3.78938,40.3953],[-3.78926,40.39529],[-3.7889,40.39519],[-3.78863,40.39518],[-3.78844,40.39523],[-3.78804,40.39546],[-3.78783,40.39554],[-3.78678,40.3957],[-3.78641,40.3958],[-3.786,40.39598],[-3.78398,40.39707]]},"properties":{"kind":"route","mode":"metro_ligero","route":"ML3","name":"Metro Ligero ML3","destination":"CIUDAD DE LA IMAGEN","direction":"2","color":"#E30916","source_date":"2026-05-29","terminus":"COLONIA JARDIN","offset_index":0}},{"type":"Feature","id":"metro_ligero-route-94","geometry":{"type":"LineString","coordinates":[[-3.77485,40.39694],[-3.77554,40.39772],[-3.77569,40.39785],[-3.77597,40.39801],[-3.77714,40.39854],[-3.77764,40.39873],[-3.77831,40.39889],[-3.77867,40.39894],[-3.77912,40.39897],[-3.77979,40.39894],[-3.78026,40.39887],[-3.78065,40.39877],[-3.78118,40.3986],[-3.78153,40.39843],[-3.78401,40.3971]]},"properties":{"kind":"route","mode":"metro_ligero","route":"ML3","name":"Metro Ligero ML3","destination":"CIUDAD DE LA IMAGEN","direction":"1","color":"#E30916","source_date":"2026-05-29","terminus":"PUERTA DE BOADILLA","offset_index":0}},{"type":"Feature","id":"metro_ligero-route-95","geometry":{"type":"LineString","coordinates":[[-3.79556,40.39453],[-3.79498,40.39461],[-3.79463,40.39469],[-3.79101,40.39514],[-3.78993,40.39524]]},"properties":{"kind":"route","mode":"metro_ligero","route":"ML3","name":"Metro Ligero ML3","destination":"JOSE ISBERT","direction":"2","color":"#E30916","source_date":"2026-05-29","terminus":"COLONIA JARDIN","offset_index":0}},{"type":"Feature","id":"metro_ligero-route-96","geometry":{"type":"LineString","coordinates":[[-3.78401,40.3971],[-3.78603,40.39601],[-3.78643,40.39583],[-3.78679,40.39573],[-3.78784,40.39557],[-3.78807,40.39549],[-3.78846,40.39526],[-3.78864,40.39521],[-3.78889,40.39522],[-3.78931,40.39533],[-3.78994,40.39528]]},"properties":{"kind":"route","mode":"metro_ligero","route":"ML3","name":"Metro Ligero ML3","destination":"JOSE ISBERT","direction":"1","color":"#E30916","source_date":"2026-05-29","terminus":"PUERTA DE BOADILLA","offset_index":0}},{"type":"Feature","id":"metro_ligero-route-97","geometry":{"type":"LineString","coordinates":[[-3.80388,40.39688],[-3.80385,40.39496],[-3.80378,40.39479],[-3.80367,40.39466],[-3.80355,40.39458],[-3.80336,40.3945],[-3.80306,40.39447],[-3.80175,40.39451],[-3.80161,40.39448],[-3.80122,40.39431],[-3.801,40.39425],[-3.79905,40.39421],[-3.79843,40.39424],[-3.79664,40.39445],[-3.79619,40.39446],[-3.79556,40.39453]]},"properties":{"kind":"route","mode":"metro_ligero","route":"ML3","name":"Metro Ligero ML3","destination":"CIUDAD DEL CINE","direction":"2","color":"#E30916","source_date":"2026-05-29","terminus":"COLONIA JARDIN","offset_index":0}},{"type":"Feature","id":"metro_ligero-route-98","geometry":{"type":"LineString","coordinates":[[-3.78994,40.39528],[-3.7904,40.39522],[-3.79102,40.39518],[-3.79464,40.39472],[-3.79505,40.39463],[-3.79557,40.39457]]},"properties":{"kind":"route","mode":"metro_ligero","route":"ML3","name":"Metro Ligero ML3","destination":"CIUDAD DEL CINE","direction":"1","color":"#E30916","source_date":"2026-05-29","terminus":"PUERTA DE BOADILLA","offset_index":0}},{"type":"Feature","id":"metro_ligero-route-99","geometry":{"type":"LineString","coordinates":[[-3.83573,40.39791],[-3.83529,40.39855],[-3.83508,40.39875],[-3.83476,40.39899],[-3.83446,40.39916],[-3.834,40.39934],[-3.83361,40.39944],[-3.83314,40.3995],[-3.83278,40.3995],[-3.83232,40.39946],[-3.83171,40.39931],[-3.83138,40.39918],[-3.83105,40.399],[-3.8302,40.39848],[-3.82956,40.39813],[-3.82935,40.39804],[-3.82891,40.39791],[-3.8282,40.39782],[-3.82758,40.39783],[-3.82576,40.39797],[-3.82538,40.39794],[-3.82367,40.39809],[-3.82322,40.39811],[-3.82178,40.39825],[-3.81675,40.3987]]},"properties":{"kind":"route","mode":"metro_ligero","route":"ML3","name":"Metro Ligero ML3","destination":"RETAMARES","direction":"2","color":"#E30916","source_date":"2026-05-29","terminus":"COLONIA JARDIN","offset_index":0}},{"type":"Feature","id":"metro_ligero-route-100","geometry":{"type":"LineString","coordinates":[[-3.80383,40.39688],[-3.80385,40.39756],[-3.80392,40.3977],[-3.80402,40.3978],[-3.80536,40.39843],[-3.8056,40.39853],[-3.80594,40.39861],[-3.80624,40.39864],[-3.80728,40.39865],[-3.80987,40.39863],[-3.81068,40.39857],[-3.81114,40.39849],[-3.81193,40.39833],[-3.81216,40.39832],[-3.8124,40.39835],[-3.81258,40.39842],[-3.81394,40.39913],[-3.81419,40.39922],[-3.81441,40.39925],[-3.81465,40.39924],[-3.81488,40.39919],[-3.81536,40.39893],[-3.81555,40.39886],[-3.81676,40.39874]]},"properties":{"kind":"route","mode":"metro_ligero","route":"ML3","name":"Metro Ligero ML3","destination":"RETAMARES","direction":"1","color":"#E30916","source_date":"2026-05-29","terminus":"PUERTA DE BOADILLA","offset_index":0}},{"type":"Feature","id":"metro_ligero-station-1","geometry":{"type":"Point","coordinates":[-3.8358,40.39792]},"properties":{"kind":"station","mode":"metro_ligero","id":"29","name":"MONTEPRINCIPE","routes":"ML3","route_keys":"|ML3|","accessible":"Step-free access","source_date":"2026-05-29"}},{"type":"Feature","id":"metro_ligero-station-2","geometry":{"type":"Point","coordinates":[-3.83811,40.3942]},"properties":{"kind":"station","mode":"metro_ligero","id":"30","name":"VENTORRO DEL CANO","routes":"ML3","route_keys":"|ML3|","accessible":"Step-free access","source_date":"2026-05-29"}},{"type":"Feature","id":"metro_ligero-station-3","geometry":{"type":"Point","coordinates":[-3.84774,40.39502]},"properties":{"kind":"station","mode":"metro_ligero","id":"31","name":"PRADO DEL ESPINO","routes":"ML3","route_keys":"|ML3|","accessible":"Step-free access","source_date":"2026-05-29"}},{"type":"Feature","id":"metro_ligero-station-4","geometry":{"type":"Point","coordinates":[-3.86439,40.39529]},"properties":{"kind":"station","mode":"metro_ligero","id":"32","name":"CANTABRIA","routes":"ML3","route_keys":"|ML3|","accessible":"Step-free access","source_date":"2026-05-29"}},{"type":"Feature","id":"metro_ligero-station-5","geometry":{"type":"Point","coordinates":[-3.87938,40.40196]},"properties":{"kind":"station","mode":"metro_ligero","id":"33","name":"FERIAL DE BOADILLA","routes":"ML3","route_keys":"|ML3|","accessible":"Step-free access","source_date":"2026-05-29"}},{"type":"Feature","id":"metro_ligero-station-6","geometry":{"type":"Point","coordinates":[-3.88004,40.40714]},"properties":{"kind":"station","mode":"metro_ligero","id":"34","name":"BOADILLA CENTRO","routes":"ML3","route_keys":"|ML3|","accessible":"Step-free access","source_date":"2026-05-29"}},{"type":"Feature","id":"metro_ligero-station-7","geometry":{"type":"Point","coordinates":[-3.88576,40.40564]},"properties":{"kind":"station","mode":"metro_ligero","id":"35","name":"NUEVO MUNDO","routes":"ML3","route_keys":"|ML3|","accessible":"Step-free access","source_date":"2026-05-29"}},{"type":"Feature","id":"metro_ligero-station-8","geometry":{"type":"Point","coordinates":[-3.89263,40.40513]},"properties":{"kind":"station","mode":"metro_ligero","id":"36","name":"SIGLO XXI","routes":"ML3","route_keys":"|ML3|","accessible":"Step-free access","source_date":"2026-05-29"}},{"type":"Feature","id":"metro_ligero-station-9","geometry":{"type":"Point","coordinates":[-3.89741,40.40595]},"properties":{"kind":"station","mode":"metro_ligero","id":"37","name":"INFANTE DON LUIS","routes":"ML3","route_keys":"|ML3|","accessible":"Step-free access","source_date":"2026-05-29"}},{"type":"Feature","id":"metro_ligero-station-10","geometry":{"type":"Point","coordinates":[-3.90378,40.40777]},"properties":{"kind":"station","mode":"metro_ligero","id":"38","name":"PUERTA DE BOADILLA","routes":"ML3","route_keys":"|ML3|","accessible":"Step-free access","source_date":"2026-05-29"}},{"type":"Feature","id":"metro_ligero-station-11","geometry":{"type":"Point","coordinates":[-3.65584,40.49368]},"properties":{"kind":"station","mode":"metro_ligero","id":"6","name":"BLASCO IBAÑEZ","routes":"ML1","route_keys":"|ML1|","accessible":"Step-free access","source_date":"2026-05-29"}},{"type":"Feature","id":"metro_ligero-station-12","geometry":{"type":"Point","coordinates":[-3.66507,40.50544]},"properties":{"kind":"station","mode":"metro_ligero","id":"8","name":"PALAS DE REY","routes":"ML1","route_keys":"|ML1|","accessible":"Step-free access","source_date":"2026-05-29"}},{"type":"Feature","id":"metro_ligero-station-13","geometry":{"type":"Point","coordinates":[-3.7844,40.40721]},"properties":{"kind":"station","mode":"metro_ligero","id":"12","name":"COLONIA DE LOS ANGELES","routes":"ML2","route_keys":"|ML2|","accessible":"Step-free access","source_date":"2026-05-29"}},{"type":"Feature","id":"metro_ligero-station-14","geometry":{"type":"Point","coordinates":[-3.78748,40.41047]},"properties":{"kind":"station","mode":"metro_ligero","id":"13","name":"PRADO DEL REY","routes":"ML2","route_keys":"|ML2|","accessible":"Step-free access","source_date":"2026-05-29"}},{"type":"Feature","id":"metro_ligero-station-15","geometry":{"type":"Point","coordinates":[-3.79874,40.41937]},"properties":{"kind":"station","mode":"metro_ligero","id":"15","name":"SOMOSAGUAS CENTRO","routes":"ML2","route_keys":"|ML2|","accessible":"Step-free access","source_date":"2026-05-29"}},{"type":"Feature","id":"metro_ligero-station-16","geometry":{"type":"Point","coordinates":[-3.80447,40.42307]},"properties":{"kind":"station","mode":"metro_ligero","id":"16","name":"POZUELO OESTE","routes":"ML2","route_keys":"|ML2|","accessible":"Step-free access","source_date":"2026-05-29"}},{"type":"Feature","id":"metro_ligero-station-17","geometry":{"type":"Point","coordinates":[-3.80755,40.43058]},"properties":{"kind":"station","mode":"metro_ligero","id":"18","name":"BELGICA","routes":"ML2","route_keys":"|ML2|","accessible":"Step-free access","source_date":"2026-05-29"}},{"type":"Feature","id":"metro_ligero-station-18","geometry":{"type":"Point","coordinates":[-3.80162,40.43253]},"properties":{"kind":"station","mode":"metro_ligero","id":"19","name":"DOS CASTILLAS","routes":"ML2","route_keys":"|ML2|","accessible":"Step-free access","source_date":"2026-05-29"}},{"type":"Feature","id":"metro_ligero-station-19","geometry":{"type":"Point","coordinates":[-3.79525,40.43338]},"properties":{"kind":"station","mode":"metro_ligero","id":"20","name":"CAMPUS DE SOMOSAGUAS","routes":"ML2","route_keys":"|ML2|","accessible":"Step-free access","source_date":"2026-05-29"}},{"type":"Feature","id":"metro_ligero-station-20","geometry":{"type":"Point","coordinates":[-3.79305,40.43931]},"properties":{"kind":"station","mode":"metro_ligero","id":"21","name":"AVENIDA DE EUROPA","routes":"ML2","route_keys":"|ML2|","accessible":"Step-free access","source_date":"2026-05-29"}},{"type":"Feature","id":"metro_ligero-station-21","geometry":{"type":"Point","coordinates":[-3.7912,40.44487]},"properties":{"kind":"station","mode":"metro_ligero","id":"22","name":"BERNA","routes":"ML2","route_keys":"|ML2|","accessible":"Step-free access","source_date":"2026-05-29"}},{"type":"Feature","id":"metro_ligero-station-22","geometry":{"type":"Point","coordinates":[-3.76635,40.24599]},"properties":{"kind":"station","mode":"metro_ligero","id":"52","name":"LA BALLENA","routes":"ML4","route_keys":"|ML4|","accessible":"Step-free access","source_date":"2026-05-29"}},{"type":"Feature","id":"metro_ligero-station-23","geometry":{"type":"Point","coordinates":[-3.78399,40.39709]},"properties":{"kind":"station","mode":"metro_ligero","id":"25","name":"CIUDAD DE LA IMAGEN","routes":"ML3","route_keys":"|ML3|","accessible":"Step-free access","source_date":"2026-05-29"}},{"type":"Feature","id":"metro_ligero-station-24","geometry":{"type":"Point","coordinates":[-3.78993,40.39525]},"properties":{"kind":"station","mode":"metro_ligero","id":"26","name":"JOSE ISBERT","routes":"ML3","route_keys":"|ML3|","accessible":"Step-free access","source_date":"2026-05-29"}},{"type":"Feature","id":"metro_ligero-station-25","geometry":{"type":"Point","coordinates":[-3.79557,40.39455]},"properties":{"kind":"station","mode":"metro_ligero","id":"27","name":"CIUDAD DEL CINE","routes":"ML3","route_keys":"|ML3|","accessible":"Step-free access","source_date":"2026-05-29"}},{"type":"Feature","id":"metro_ligero-station-26","geometry":{"type":"Point","coordinates":[-3.81675,40.39872]},"properties":{"kind":"station","mode":"metro_ligero","id":"28","name":"RETAMARES","routes":"ML3","route_keys":"|ML3|","accessible":"Step-free access","source_date":"2026-05-29"}},{"type":"Feature","id":"metro_ligero-station-27","geometry":{"type":"Point","coordinates":[-3.80386,40.39688]},"properties":{"kind":"station","mode":"metro_ligero","id":"39","name":"COCHERAS","routes":"ML3","route_keys":"|ML3|","accessible":"Step-free access","source_date":"2026-05-29"}},{"type":"Feature","id":"metro_ligero-station-28","geometry":{"type":"Point","coordinates":[-3.75756,40.2441]},"properties":{"kind":"station","mode":"metro_ligero","id":"50","name":"PLAZA DE TOROS","routes":"ML4","route_keys":"|ML4|","accessible":"Step-free access","source_date":"2026-05-29"}},{"type":"Feature","id":"metro_ligero-station-29","geometry":{"type":"Point","coordinates":[-3.76232,40.24535]},"properties":{"kind":"station","mode":"metro_ligero","id":"51","name":"JULIO ROMERO DE TORRES","routes":"ML4","route_keys":"|ML4|","accessible":"Step-free access","source_date":"2026-05-29"}},{"type":"Feature","id":"metro_ligero-station-30","geometry":{"type":"Point","coordinates":[-3.77059,40.23771]},"properties":{"kind":"station","mode":"metro_ligero","id":"54","name":"IGLESIA CENTRO","routes":"ML4","route_keys":"|ML4|","accessible":"Step-free access","source_date":"2026-05-29"}},{"type":"Feature","id":"metro_ligero-station-31","geometry":{"type":"Point","coordinates":[-3.77236,40.23473]},"properties":{"kind":"station","mode":"metro_ligero","id":"55","name":"BULEVAR SUR","routes":"ML4","route_keys":"|ML4|","accessible":"Step-free access","source_date":"2026-05-29"}},{"type":"Feature","id":"metro_ligero-station-32","geometry":{"type":"Point","coordinates":[-3.77,40.23141]},"properties":{"kind":"station","mode":"metro_ligero","id":"56","name":"REYES CATOLICOS","routes":"ML4","route_keys":"|ML4|","accessible":"Step-free access","source_date":"2026-05-29"}},{"type":"Feature","id":"metro_ligero-station-33","geometry":{"type":"Point","coordinates":[-3.76508,40.23114]},"properties":{"kind":"station","mode":"metro_ligero","id":"57","name":"ISABEL II","routes":"ML4","route_keys":"|ML4|","accessible":"Step-free access","source_date":"2026-05-29"}},{"type":"Feature","id":"metro_ligero-station-34","geometry":{"type":"Point","coordinates":[-3.76147,40.22816]},"properties":{"kind":"station","mode":"metro_ligero","id":"58","name":"PARQUE PARLA ESTE","routes":"ML4","route_keys":"|ML4|","accessible":"Step-free access","source_date":"2026-05-29"}},{"type":"Feature","id":"metro_ligero-station-35","geometry":{"type":"Point","coordinates":[-3.66098,40.48734]},"properties":{"kind":"station","mode":"metro_ligero","id":"3","name":"VIRGEN DEL CORTIJO","routes":"ML1","route_keys":"|ML1|","accessible":"Step-free access","source_date":"2026-05-29"}},{"type":"Feature","id":"metro_ligero-station-36","geometry":{"type":"Point","coordinates":[-3.65353,40.48546]},"properties":{"kind":"station","mode":"metro_ligero","id":"4","name":"ANTONIO SAURA","routes":"ML1","route_keys":"|ML1|","accessible":"Step-free access","source_date":"2026-05-29"}},{"type":"Feature","id":"metro_ligero-station-37","geometry":{"type":"Point","coordinates":[-3.65136,40.48905]},"properties":{"kind":"station","mode":"metro_ligero","id":"5","name":"ALVAREZ DE VILLAAMIL","routes":"ML1","route_keys":"|ML1|","accessible":"Step-free access","source_date":"2026-05-29"}},{"type":"Feature","id":"metro_ligero-station-38","geometry":{"type":"Point","coordinates":[-3.66932,40.50824]},"properties":{"kind":"station","mode":"metro_ligero","id":"9","name":"LAS TABLAS","routes":"ML1","route_keys":"|ML1|","accessible":"Step-free access","source_date":"2026-05-29"}},{"type":"Feature","id":"metro_ligero-station-39","geometry":{"type":"Point","coordinates":[-3.76954,40.24079]},"properties":{"kind":"station","mode":"metro_ligero","id":"53","name":"PARLA CENTRO - BULEVAR NORTE","routes":"ML4","route_keys":"|ML4|","accessible":"Step-free access","source_date":"2026-05-29"}},{"type":"Feature","id":"metro_ligero-station-40","geometry":{"type":"Point","coordinates":[-3.77451,40.39698]},"properties":{"kind":"station","mode":"metro_ligero","id":"24","name":"COLONIA JARDIN","routes":"ML3","route_keys":"|ML3|","accessible":"Step-free access","source_date":"2026-05-29"}},{"type":"Feature","id":"metro_ligero-station-41","geometry":{"type":"Point","coordinates":[-3.78591,40.44833]},"properties":{"kind":"station","mode":"metro_ligero","id":"23","name":"ESTACION DE ARAVACA","routes":"ML2","route_keys":"|ML2|","accessible":"Step-free access","source_date":"2026-05-29"}},{"type":"Feature","id":"metro_ligero-station-42","geometry":{"type":"Point","coordinates":[-3.66325,40.48482]},"properties":{"kind":"station","mode":"metro_ligero","id":"2","name":"FUENTE DE LA MORA","routes":"ML1","route_keys":"|ML1|","accessible":"Step-free access","source_date":"2026-05-29"}},{"type":"Feature","id":"metro_ligero-station-43","geometry":{"type":"Point","coordinates":[-3.77456,40.39698]},"properties":{"kind":"station","mode":"metro_ligero","id":"10","name":"COLONIA JARDIN","routes":"ML2","route_keys":"|ML2|","accessible":"Step-free access","source_date":"2026-05-29"}},{"type":"Feature","id":"metro_ligero-station-44","geometry":{"type":"Point","coordinates":[-3.66684,40.48014]},"properties":{"kind":"station","mode":"metro_ligero","id":"1","name":"PINAR DE CHAMARTIN","routes":"ML1","route_keys":"|ML1|","accessible":"Step-free access","source_date":"2026-05-29"}},{"type":"Feature","id":"metro_ligero-station-45","geometry":{"type":"Point","coordinates":[-3.76072,40.22343]},"properties":{"kind":"station","mode":"metro_ligero","id":"59","name":"AVENIDA SISTEMA SOLAR","routes":"ML4","route_keys":"|ML4|","accessible":"Step-free access","source_date":"2026-05-29"}},{"type":"Feature","id":"metro_ligero-station-46","geometry":{"type":"Point","coordinates":[-3.75406,40.22195]},"properties":{"kind":"station","mode":"metro_ligero","id":"60","name":"TIERRA NORTE","routes":"ML4","route_keys":"|ML4|","accessible":"Step-free access","source_date":"2026-05-29"}},{"type":"Feature","id":"metro_ligero-station-47","geometry":{"type":"Point","coordinates":[-3.75675,40.22254]},"properties":{"kind":"station","mode":"metro_ligero","id":"61","name":"TIERRA SUR","routes":"ML4","route_keys":"|ML4|","accessible":"Step-free access","source_date":"2026-05-29"}},{"type":"Feature","id":"metro_ligero-station-48","geometry":{"type":"Point","coordinates":[-3.75251,40.22627]},"properties":{"kind":"station","mode":"metro_ligero","id":"62","name":"VENUS NORTE","routes":"ML4","route_keys":"|ML4|","accessible":"Step-free access","source_date":"2026-05-29"}},{"type":"Feature","id":"metro_ligero-station-49","geometry":{"type":"Point","coordinates":[-3.75522,40.22683]},"properties":{"kind":"station","mode":"metro_ligero","id":"63","name":"VENUS SUR","routes":"ML4","route_keys":"|ML4|","accessible":"Step-free access","source_date":"2026-05-29"}},{"type":"Feature","id":"metro_ligero-station-50","geometry":{"type":"Point","coordinates":[-3.79252,40.41536]},"properties":{"kind":"station","mode":"metro_ligero","id":"14","name":"SOMOSAGUAS SUR","routes":"ML2","route_keys":"|ML2|","accessible":"Step-free access","source_date":"2026-05-29"}},{"type":"Feature","id":"metro_ligero-station-51","geometry":{"type":"Point","coordinates":[-3.65889,40.49717]},"properties":{"kind":"station","mode":"metro_ligero","id":"7","name":"MARIA TUDOR","routes":"ML1","route_keys":"|ML1|","accessible":"Step-free access","source_date":"2026-05-29"}},{"type":"Feature","id":"metro_ligero-station-52","geometry":{"type":"Point","coordinates":[-3.75383,40.23072]},"properties":{"kind":"station","mode":"metro_ligero","id":"65","name":"ESTRELLA POLAR SUR","routes":"ML4","route_keys":"|ML4|","accessible":"Step-free access","source_date":"2026-05-29"}},{"type":"Feature","id":"metro_ligero-station-53","geometry":{"type":"Point","coordinates":[-3.75112,40.23015]},"properties":{"kind":"station","mode":"metro_ligero","id":"64","name":"ESTRELLA POLAR NORTE","routes":"ML4","route_keys":"|ML4|","accessible":"Step-free access","source_date":"2026-05-29"}},{"type":"Feature","id":"metro_ligero-station-54","geometry":{"type":"Point","coordinates":[-3.74969,40.23414]},"properties":{"kind":"station","mode":"metro_ligero","id":"66","name":"JAIME I NORTE","routes":"ML4","route_keys":"|ML4|","accessible":"Step-free access","source_date":"2026-05-29"}},{"type":"Feature","id":"metro_ligero-station-55","geometry":{"type":"Point","coordinates":[-3.7524,40.2347]},"properties":{"kind":"station","mode":"metro_ligero","id":"67","name":"JAIME I SUR","routes":"ML4","route_keys":"|ML4|","accessible":"Step-free access","source_date":"2026-05-29"}},{"type":"Feature","id":"metro_ligero-station-56","geometry":{"type":"Point","coordinates":[-3.75045,40.23867]},"properties":{"kind":"station","mode":"metro_ligero","id":"68","name":"POLIGONO INDUSTRIAL CIUDAD DE PARLA","routes":"ML4","route_keys":"|ML4|","accessible":"Step-free access","source_date":"2026-05-29"}},{"type":"Feature","id":"metro_ligero-station-57","geometry":{"type":"Point","coordinates":[-3.78121,40.4023]},"properties":{"kind":"station","mode":"metro_ligero","id":"11","name":"PRADO DE LA VEGA","routes":"ML2","route_keys":"|ML2|","accessible":"Step-free access","source_date":"2026-05-29"}}]}